{"type":"FeatureCollection","features":[{"type":"Feature","properties":{"name":"Haoe Lead Fire","desc":"name=Haoe Lead Fire\nnotes=\nid=0ae234a2-dcb1-4963-bb27-d908df986b43\ncolor=rgba(255,51,0,1)\nicon=Location","size":"3,103 acres","start":"April, 12","active":"Active"},"geometry":{"type":"Point","coordinates":[-83.951447,35.371275]}},{"type":"Feature","properties":{"name":"Bee Rock Fire","desc":"name=Bee Rock Fire\nnotes=\nid=6658695c-9bed-4331-9099-d38bc5681b62\ncolor=rgba(255,51,0,1)\nicon=Location","active":"Inactive","start":"April, 15","size":"2,085 acres"},"geometry":{"type":"Point","coordinates":[-82.121179,35.815846]}},{"type":"Feature","properties":{"name":"Rattlesnake Branch Fire","desc":"name=Rattlesnake Branch Fire\nnotes=\nid=d5d3c81f-2942-4c0d-bdda-cefbfc34bc95\ncolor=rgba(255,51,0,1)\nicon=Location","start":"March, 26","size":"1,843 acres","active":"Inactive"},"geometry":{"type":"Point","coordinates":[-82.834173,35.396906]}},{"type":"Feature","properties":{"name":"Black Swamp Fire","desc":"name=Black Swamp Fire\nnotes=\nid=517307c8-8df8-40a8-83a8-7f6d23358c68\ncolor=rgba(255,51,0,1)\nicon=Location","size":"950 acres","start":"April, 27","active":"Active"},"geometry":{"type":"Point","coordinates":[-77.115894,34.856723]}},{"type":"Feature","properties":{"name":"Nantahala Fire","desc":"name=Nantahala Fire\nnotes=\nid=bc3548b3-f140-4c04-9e23-3d9acd0ecb4f\ncolor=rgba(255,51,0,1)\nicon=Location","size":"20 acres","start":"March, 2","active":"Inactive"},"geometry":{"type":"Point","coordinates":[-84.068465,35.052216]}},{"type":"Feature","properties":{"name":"Hick's Cemetery Fire","desc":"name=Hick's Cemetery Fire\nnotes=\nid=16a2c613-b8e4-42e1-a3ce-7bcfc98c4e9a\ncolor=rgba(255,51,0,1)\nicon=Location","size":"50 acres","start":"March, 2","active":"Inactive"},"geometry":{"type":"Point","coordinates":[-83.03396,35.731884]}},{"type":"Feature","properties":{"name":"Falls Dam Fire","desc":"name=Falls Dam Fire\nnotes=\nid=803559f4-ffd3-4a5b-a8cc-e1886871c5c6\ncolor=rgba(255,51,0,1)\nicon=Location","size":"300 acres","start":"March, 2","active":"Inactive"},"geometry":{"type":"Point","coordinates":[-80.074379,35.397213]}},{"type":"Feature","properties":{"name":"Ramshorn Fire","desc":"name=Ramshorn Fire\nnotes=\nid=5ebff065-f596-48e5-a32f-fa4fb24cbb63\ncolor=rgba(255,51,0,1)\nicon=Location","size":"114 acres","start":"March, 2","active":"Inactive"},"geometry":{"type":"Point","coordinates":[-76.887358,34.814197]}},{"type":"Feature","properties":{"name":"Black Cove Fire","desc":"name=Black Cove Fire\nnotes=\nid=35fd8eca-65c9-43e3-9c8f-14ef3ec38e19\ncolor=rgba(255,51,0,1)\nicon=Location","active":"Inactive","size":"2,076 acres","start":"March, 19"},"geometry":{"type":"Point","coordinates":[-82.276246,35.291334]}},{"type":"Feature","properties":{"name":"Deep Woods Fire","desc":"name=Deep Woods Fire\nnotes=\nid=406218b7-6e6a-42e4-942c-473b6474f675\ncolor=rgba(255,51,0,1)\nicon=Location","active":"Inactive","size":"2,545 acres","start":"March, 19"},"geometry":{"type":"Point","coordinates":[-82.237092,35.282437]}}]}